P/2015 PD229 (Cameron-ISON),e,2.0255,342.6873,352.2756,7.176790,0.0512635,0.32751020,67.4969,03/22.0/2019,2000,g 11.5,2.0
# From MPC 99819
P/2015 Q1 (Scotti),e,22.4687,203.1693,199.8976,3.464598,0.1528357,0.48025769,198.1326,03/22.0/2019,2000,g 14.0,4.0
# From MPC 96867
P/2015 Q2 (Pimentel),e,146.4536,228.3556,244.3714,7.344303,0.0495197,0.75173021,63.9676,03/22.0/2019,2000,g 15.5,4.0
# From MPC 98562
P/2015 R1 (PANSTARRS),e,22.6721,48.5137,300.3775,5.883368,0.0690661,0.63308632,94.2767,03/22.0/2019,2000,g 14.0,4.0
# From MPC 95734
P/2015 R2 (PANSTARRS),e,15.4645,168.6355,149.6678,4.490931,0.1035618,0.45206382,143.0590,03/22.0/2019,2000,g 14.5,4.0
# From MPC102097
C/2015 R3 (PANSTARRS),e,83.6178,36.4017,272.0005,2031236,0.0000000,0.99999759,0.0000,02/13.1331/2014,2000,g 10.0,4.0
# From MPC112390
C/2015 T2 (PANSTARRS),e,124.5494,51.0609,30.7005,5075,0.0000027,0.99863375,0.0000,05/19.4934/2017,2000,g  8.0,4.0
# From MPC 96280
P/2015 T3 (PANSTARRS),e,13.0937,120.5019,178.6330,4.326181,0.1095335,0.50818108,359.9227,12/21.0/2014,2000,g 14.0,4.0
# From MPC102953
C/2015 T4 (PANSTARRS),e,87.9583,251.7964,270.0629,81.69550,0.0013348,0.97190170,0.0000,06/18.1466/2016,2000,g 11.0,4.0
# From MPC102097
C/2015 T5 (Sheppard-Tholen),e,11.0475,311.0999,61.7719,27.98246,0.0066585,0.66644830,7.6947,03/22.0/2019,2000,g  7.5,4.0
# From MPC102953
P/2015 TO19 (Lemmon-PANSTARRS),e,6.4990,321.6381,89.2765,4.559071,0.1012487,0.35775098,112.4738,03/22.0/2019,2000,g 14.0,4.0
# From MPC110080
P/2015 TP200 (LINEAR),e,8.7713,6.9763,82.7870,7.289785,0.0500763,0.53524680,43.8140,03/22.0/2019,2000,g 11.0,4.0
# From MPC101097
C/2015 TQ209 (LINEAR),e,11.3603,223.8391,281.6893,869.0260,0.0000385,0.99837478,0.0000,08/27.2810/2016,2000,g 10.5,4.0
# From MPC112390
C/2015 V1 (PANSTARRS),e,139.2241,197.1889,179.6144,20335,0.0000003,0.99979018,0.0000,12/17.5574/2017,2000,g  6.5,4.0
# From MPC112390
C/2015 V2 (Johnson),h,06/12.3167/2017,49.8773,69.8431,164.9369,1.001739,1.638465,2000,5.0,4.0
# From MPC102953
C/2015 V3 (PANSTARRS),e,86.2310,2.3012,0.7133,637.6312,0.0000612,0.99336353,0.0000,11/24.0961/2015,2000,g  9.0,4.0
# From MPC104791
C/2015 V4 (PANSTARRS),e,60.7447,179.9017,307.0812,18.54224,0.0123441,0.70532201,11.5374,03/22.0/2019,2000,g  8.5,4.0
# From MPC111768
C/2015 VL62 (Lemmon-Yeung-PANSTARRS),h,08/28.5122/2017,165.8125,95.0781,128.7489,1.002085,2.713865,2000,8.0,4.0
# From MPC102098
C/2015 WZ (PANSTARRS),e,134.5320,40.1164,66.6109,147.6692,0.0005492,0.99068913,0.0000,04/14.4959/2016,2000,g 15.0,4.0
# From MPC109142
C/2015 W1 (Gibbs),h,05/16.8342/2016,87.3081,114.3236,48.1404,1.000766,2.234162,2000,13.0,4.0
# From MPC101098
P/2015 W2 (Catalina),e,11.6063,294.2375,117.6520,7.307727,0.0498920,0.63315046,63.3059,03/22.0/2019,2000,g 13.0,4.0
# From MPC101098
P/2015 X1 (PANSTARRS),e,12.1530,161.7811,219.0359,3.629999,0.1425096,0.41898713,179.5641,03/22.0/2019,2000,g 16.0,4.0
# From MPC112390
C/2015 XY1 (Lemmon),h,04/29.4178/2018,148.8537,281.6221,196.3246,1.004476,7.927578,2000,5.5,4.0
# From MPC 10028
C/2015 X2 (Catalina),e,72.4109,101.0986,42.2678,15.85336,0.0156143,0.87910067,18.5366,03/22.0/2019,2000,g 16.0,4.0
# From MPC 97498
P/2015 X3 (PANSTARRS),e,24.3817,77.3393,306.7210,5.014609,0.0877705,0.43772403,116.1259,03/22.0/2019,2000,g 15.0,4.0
# From MPC109142
C/2015 X4 (Elenin),e,29.4999,262.6249,176.3400,18.01601,0.0128889,0.81147271,15.9207,03/22.0/2019,2000,g 10.0,4.0
# From MPC112390
C/2015 X5 (PANSTARRS),h,12/30.7648/2017,124.3042,122.3305,27.7395,1.003524,6.801279,2000,7.5,4.0
# From MPC101098
P/2015 X6 (PANSTARRS),e,4.5645,106.9478,329.8361,2.753015,0.2157700,0.17203276,235.8844,03/22.0/2019,2000,g 16.0,4.0
# From MPC109143
C/2015 X7 (ATLAS),h,07/29.9770/2016,57.5632,139.8864,348.5102,1.000890,3.686447,2000,9.0,4.0
# From MPC107048
C/2015 X8 (NEOWISE),e,155.2483,191.1338,20.4558,19.76793,0.0112140,0.93983574,13.9648,03/22.0/2019,2000,g 16.0,4.0
# From MPC109143
C/2015 Y1 (LINEAR),e,71.1905,135.8007,24.7153,268.0313,0.0002246,0.99061320,0.0000,05/14.8417/2016,2000,g 12.0,4.0
# From MPC105543
C/2015 YG1 (NEOWISE),e,57.2522,350.4781,102.5843,17.04207,0.0140094,0.87866757,17.8058,03/22.0/2019,2000,g 13.0,4.0
# From MPC112390
C/2016 A1 (PANSTARRS),h,11/23.3437/2017,121.2003,128.1874,10.3208,1.002345,5.327465,2000,6.0,4.0
# From MPC 10028
P/2016 A2 (Christensen),e,26.4002,291.6408,141.6827,4.745697,0.0953354,0.27253086,130.1860,03/22.0/2019,2000,g 11.5,4.0
# From MPC110494
P/2016 A3 (PANSTARRS),e,8.5360,187.5728,339.9295,7.861713,0.0447124,0.38855486,31.1088,03/22.0/2019,2000,g 10.0,4.0
# From MPC109143
C/2016 A5 (PANSTARRS),e,40.2370,136.1316,321.6293,746.7110,0.0000483,0.99605209,0.0000,06/27.1514/2015,2000,g 13.5,4.0
# From MPC109143
C/2016 A6 (PANSTARRS),e,120.9344,300.3366,141.1152,208.8568,0.0003265,0.98845671,0.0000,11/06.0424/2015,2000,g 15.0,4.0
# From MPC102098
P/2016 A7 (PANSTARRS),e,16.6361,221.4615,352.6038,5.028146,0.0874163,0.56622761,97.9196,03/22.0/2019,2000,g 16.0,4.0
# From MPC106345
C/2016 A8 (LINEAR),e,148.2443,111.3516,130.3420,34.36553,0.0048924,0.94522983,4.5692,03/22.0/2019,2000,g 12.0,4.0
# From MPC107048
C/2016 B1 (NEOWISE),e,50.4753,231.9541,8.6266,430.9633,0.0001102,0.99255364,0.0000,12/04.8612/2016,2000,g  9.5,4.0
# From MPC109143
P/2016 BA14 (PANSTARRS),e,18.9065,180.5408,351.9251,3.023283,0.1874933,0.66556118,206.5913,03/22.0/2019,2000,g 21.0,4.0
# From MPC110494
C/2016 C1 (PANSTARRS),h,02/19.9285/2016,56.1923,181.7851,328.8042,1.003580,8.467130,2000,5.5,4.0
# From MPC101098
C/2016 C2 (NEOWISE),e,38.1333,24.4130,214.4872,65.55714,0.0018568,0.97616479,0.0000,04/19.7449/2016,2000,g 16.0,4.0
# From MPC110494
C/2016 E1 (PANSTARRS),h,06/03.2314/2017,131.8925,233.0395,47.4139,1.004210,8.178756,2000,6.5,4.0
# From MPC 99821
C/2016 E2 (Kowalski),e,135.9338,186.7328,321.8474,137.7693,0.0006095,0.99218493,0.0000,02/06.4364/2016,2000,g 20.0,4.0
# From MPC102098
P/2016 G1 (PANSTARRS),e,10.9679,204.0653,111.2703,2.582865,0.2374387,0.21062801,186.2835,03/22.0/2019,2000,g 14.0,4.0
# From MPEC 2017-D91
P/2016 J1-A (PANSTARRS),e,14.3270,199.8498,46.7858,3.174210,0.1742812,0.22834139,174.2787,03/22.0/2019,2000,g 16.5,4.0
# From MPEC 2017-A77
P/2016 J1-B (PANSTARRS),e,14.3298,199.8546,46.6771,3.173840,0.1743117,0.22819306,174.3839,03/22.0/2019,2000,g 17.0,4.0
# From MPC101099
C/2016 J2 (Denneau),e,130.3454,186.2626,318.5613,592.9878,0.0000683,0.99743494,0.0000,04/11.8475/2016,2000,g 17.0,4.0
# From MPC102099
C/2016 KA (Catalina),e,104.6555,317.5244,63.1539,3335,0.0000051,0.99837936,0.0000,02/01.6410/2016,2000,g  8.5,4.0
# From MPC104792
C/2016 K1 (LINEAR),e,90.8751,325.6619,18.2429,7432,0.0000015,0.99969160,0.0000,07/13.2099/2016,2000,g 13.0,4.0
# From MPC112390
C/2016 M1 (PANSTARRS),e,91.0006,92.2034,209.8315,2161,0.0000098,0.99897728,0.0000,08/10.1810/2018,2000,g  5.0,4.0
# From MPC112390
C/2016 N4 (MASTER),e,72.5634,354.0184,55.9481,2578,0.0000075,0.99875928,0.0000,09/16.5019/2017,2000,g  8.5,4.0
# From MPC112390
C/2016 N6 (PANSTARRS),e,105.8368,298.9783,162.8034,2229,0.0000094,0.99880283,0.0000,07/18.2037/2018,2000,g  7.0,4.0
# From MPC102099
P/2016 P1 (PANSTARRS),e,24.4494,319.5771,269.9960,3.195332,0.1725560,0.28953953,220.0951,03/22.0/2019,2000,g 15.0,4.0
# From MPC102099
C/2016 P4 (PANSTARRS),e,29.8859,320.7641,356.0687,369.0976,0.0001390,0.98404352,0.0000,10/17.1443/2016,2000,g 10.5,4.0
# From MPC112391
C/2016 Q2 (PANSTARRS),e,109.3957,322.3056,84.4513,6490,0.0000019,0.99890831,0.0000,05/11.0187/2021,2000,g  6.0,4.0
# From MPC102955
C/2016 Q4 (Kowalski),e,7.2575,271.2861,99.3781,16.84792,0.0142523,0.57943586,5.9830,03/22.0/2019,2000,g  7.0,4.0
# From MPC112391
C/2016 R2 (PANSTARRS),e,58.2242,80.5703,33.1910,649.5739,0.0000595,0.99599355,0.0000,05/09.5612/2018,2000,g  7.0,4.0
# From MPC102099
C/2016 R3 (Borisov),e,53.0458,78.6249,118.1522,200.4108,0.0003474,0.99775862,0.0000,10/10.8364/2016,2000,g 18.0,4.0
# From MPC109144
P/2016 R4 (Gibbs),e,10.8634,168.3136,173.9862,5.332378,0.0800429,0.47547038,78.0022,03/22.0/2019,2000,g 12.5,4.0
# From MPC105543
P/2016 S1 (PANSTARRS),e,94.6451,227.5138,273.2872,8.289644,0.0412953,0.71066158,30.3582,03/22.0/2019,2000,g 12.0,4.0
# From MPC105238
C/2016 T1 (Matheny),e,129.8419,56.2481,137.3188,122.3086,0.0007286,0.98119663,0.0000,02/01.3753/2017,2000,g 14.5,4.0
# From MPC107685
C/2016 T2 (Matheny),e,81.3233,339.1133,92.2791,99.48540,0.0009933,0.98081860,0.0000,12/28.9496/2016,2000,g 14.5,4.0
# From MPC110082
C/2016 T3 (PANSTARRS),e,22.6769,271.7434,194.7100,138.6886,0.0006035,0.98088709,0.0000,09/06.9395/2017,2000,g 10.5,4.0
# From MPC103847
C/2016 U1 (NEOWISE),h,01/14.0564/2017,46.4438,61.4130,162.8120,1.000364,0.320177,2000,17.0,4.0
# From MPC106345
C/2016 VZ18 (PANSTARRS),e,24.0722,98.9270,36.3304,177.9330,0.0004153,0.99489355,0.0000,03/07.2288/2017,2000,g 19.5,4.0
# From MPC106345
P/2016 WM48 (Lemmon),e,117.4939,59.8890,36.1469,8.199354,0.0419792,0.78501665,31.6726,03/22.0/2019,2000,g 15.0,4.0
# From MPC112391
C/2016 X1 (Lemmon),e,26.4559,256.4267,224.5604,1776,0.0000132,0.99574076,0.0000,04/29.7805/2019,2000,g  6.0,4.0
# From MPC108594
C/2017 A1 (PANSTARRS),e,49.7943,121.0406,2.0891,78.94054,0.0014053,0.97096693,0.0000,05/16.9697/2017,2000,g 13.0,4.0
# From MPC108594
C/2017 A3 (Elenin),e,98.5335,97.9050,304.0981,43.48741,0.0034368,0.91138859,2.6819,03/22.0/2019,2000,g  9.5,4.0
# From MPC111768
C/2017 AB5 (PANSTARRS),e,32.4309,42.6815,78.3993,5024,0.0000028,0.99816578,0.0000,02/17.7179/2018,2000,g  5.5,4.0
# From MPC112391
C/2017 B3 (LINEAR),h,02/02.5199/2019,54.1788,2.1772,284.7528,1.002135,3.921159,2000,6.0,4.0
# From MPC103847
P/2017 B4 (PANSTARRS),e,20.0584,121.4578,11.0197,4.410520,0.1064068,0.36495152,359.9130,01/05.0/2017,2000,g 14.5,4.0
# From MPC104793
C/2017 C1 (NEOWISE),e,65.7262,357.4447,110.1709,20.67766,0.0104822,0.92738629,8.3051,03/22.0/2019,2000,g 18.0,4.0
# From MPC107685
C/2017 C2 (PANSTARRS),e,118.5920,249.8263,138.7293,98.56713,0.0010072,0.97536015,0.0000,01/21.6289/2017,2000,g 14.0,4.0
# From MPC104793
